**** Week  406 almanac for PRN-18 ***********
ID:                          18
Health:                       0
Eccentricity:               8.293151855e-03
Time of Applicability(s):   4.055040000e+05
Orbital Inclination(rad):   9.530119300e-01
Rate of Right Ascen(R/s):   -8.000332841e-09
SQRT(A) (m^1/2):            5.153549316e+03
Right Ascen at TOA(rad):    1.032697082e+00
Argument of Perigee(rad):   -2.599379778e+00
Mean Anom(rad):             -1.737252355e+00
Af0(s):                     -2.479553223e-04
Af1(s/s):                   0.000000000e+00
week:                        406   

**** Week  406 almanac for PRN-19 ***********
ID:                          19
Health:                       0
Eccentricity:               3.976821899e-03
Time of Applicability(s):   4.055040000e+05
Orbital Inclination(rad):   9.573202729e-01
Rate of Right Ascen(R/s):   -7.828897530e-09
SQRT(A) (m^1/2):            5.153691895e+03
Right Ascen at TOA(rad):    -1.037277341e+00
Argument of Perigee(rad):   -9.099678397e-01
Mean Anom(rad):             3.010871649e+00
Af0(s):                     4.100799561e-05
Af1(s/s):                   3.637978807e-12
week:                        406   

**** Week  406 almanac for PRN-20 ***********
ID:                          20
Health:                       0
Eccentricity:               3.373146057e-03
Time of Applicability(s):   4.055040000e+05
Orbital Inclination(rad):   9.525205493e-01
Rate of Right Ascen(R/s):   -8.034620080e-09
SQRT(A) (m^1/2):            5.153741211e+03
Right Ascen at TOA(rad):    9.794040322e-01
Argument of Perigee(rad):   1.356806397e+00
Mean Anom(rad):             -1.728076220e+00
Af0(s):                     -2.574920654e-05
Af1(s/s):                   0.000000000e+00
week:                        406   

**** Week  406 almanac for PRN-21 ***********
ID:                          21
Health:                       0
Eccentricity:               1.266193390e-02
Time of Applicability(s):   4.055040000e+05
Orbital Inclination(rad):   9.395835996e-01
Rate of Right Ascen(R/s):   -8.251772599e-09
SQRT(A) (m^1/2):            5.153567871e+03
Right Ascen at TOA(rad):    -2.345275320e-02
Argument of Perigee(rad):   -2.842069149e+00
Mean Anom(rad):             -4.048484564e-01
Af0(s):                     7.724761963e-05
Af1(s/s):                   0.000000000e+00
week:                        406   

**** Week  406 almanac for PRN-22 ***********
ID:                          22
Health:                       0
Eccentricity:               4.723072052e-03
Time of Applicability(s):   4.055040000e+05
Orbital Inclination(rad):   9.506031275e-01
Rate of Right Ascen(R/s):   -8.023191000e-09
SQRT(A) (m^1/2):            5.153624023e+03
Right Ascen at TOA(rad):    1.039961457e+00
Argument of Perigee(rad):   -1.723871589e+00
Mean Anom(rad):             3.131206512e+00
Af0(s):                     1.859664917e-04
Af1(s/s):                   0.000000000e+00
week:                        406   

**** Week  406 almanac for PRN-23 ***********
ID:                          23
Health:                       0
Eccentricity:               5.042552948e-03
Time of Applicability(s):   4.055040000e+05
Orbital Inclination(rad):   9.705568552e-01
Rate of Right Ascen(R/s):   -7.874613850e-09
SQRT(A) (m^1/2):            5.153602051e+03
Right Ascen at TOA(rad):    2.040373087e+00
Argument of Perigee(rad):   2.591850042e+00
Mean Anom(rad):             2.159943819e+00
Af0(s):                     1.716613770e-04
Af1(s/s):                   3.637978807e-12
week:                        406   

**** Week  406 almanac for PRN-24 ***********
ID:                          24
Health:                       0
Eccentricity:               8.700370789e-03
Time of Applicability(s):   4.055040000e+05
Orbital Inclination(rad):   9.562416673e-01
Rate of Right Ascen(R/s):   -8.080336400e-09
SQRT(A) (m^1/2):            5.153613281e+03
Right Ascen at TOA(rad):    -3.458572319e-03
Argument of Perigee(rad):   -8.086000085e-01
Mean Anom(rad):             -1.893859982e+00
Af0(s):                     5.722045898e-06
Af1(s/s):                   3.637978807e-12
week:                        406   

**** Week  406 almanac for PRN-25 ***********
ID:                          25
Health:                       0
Eccentricity:               1.237154007e-02
Time of Applicability(s):   4.055040000e+05
Orbital Inclination(rad):   9.598189592e-01
Rate of Right Ascen(R/s):   -8.114623640e-09
SQRT(A) (m^1/2):            5.155227539e+03
Right Ascen at TOA(rad):    2.992157936e+00
Argument of Perigee(rad):   -1.286681771e+00
Mean Anom(rad):             -1.510834813e+00
Af0(s):                     3.023147583e-04
Af1(s/s):                   2.182787284e-11
week:                        406   

**** Week  406 almanac for PRN-26 ***********
ID:                          26
Health:                       0
Eccentricity:               1.833057404e-02
Time of Applicability(s):   4.055040000e+05
Orbital Inclination(rad):   9.924280643e-01
Rate of Right Ascen(R/s):   -7.657462220e-09
SQRT(A) (m^1/2):            5.153609375e+03
Right Ascen at TOA(rad):    2.075381517e+00
Argument of Perigee(rad):   8.682039380e-01
Mean Anom(rad):             1.380567312e+00
Af0(s):                     -2.374649048e-04
Af1(s/s):                   -2.182787284e-11
week:                        406   

**** Week  406 almanac for PRN-27 ***********
ID:                          27
Health:                       0
Eccentricity:               2.050256729e-02
Time of Applicability(s):   4.055040000e+05
Orbital Inclination(rad):   9.643969536e-01
Rate of Right Ascen(R/s):   -8.068907320e-09
SQRT(A) (m^1/2):            5.153656738e+03
Right Ascen at TOA(rad):    3.025436401e+00
Argument of Perigee(rad):   -1.809253573e+00
Mean Anom(rad):             -1.385318756e+00
Af0(s):                     1.153945923e-04
Af1(s/s):                   3.637978807e-12
week:                        406   

**** Week  406 almanac for PRN-28 ***********
ID:                          28
Health:                       0
Eccentricity:               1.267290115e-02
Time of Applicability(s):   4.055040000e+05
Orbital Inclination(rad):   9.615866542e-01
Rate of Right Ascen(R/s):   -7.828897530e-09
SQRT(A) (m^1/2):            5.153647461e+03
Right Ascen at TOA(rad):    -2.126307487e+00
Argument of Perigee(rad):   -2.172429562e+00
Mean Anom(rad):             -2.524360180e+00
Af0(s):                     -9.536743164e-07
Af1(s/s):                   0.000000000e+00
week:                        406   

**** Week  406 almanac for PRN-29 ***********
ID:                          29
Health:                       0
Eccentricity:               1.011133194e-02
Time of Applicability(s):   4.055040000e+05
Orbital Inclination(rad):   9.888387918e-01
Rate of Right Ascen(R/s):   -7.691748571e-09
SQRT(A) (m^1/2):            5.153608398e+03
Right Ascen at TOA(rad):    2.039604902e+00
Argument of Perigee(rad):   -6.860957742e-01
Mean Anom(rad):             -3.139544964e+00
Af0(s):                     3.814697266e-06
Af1(s/s):                   0.000000000e+00
week:                        406   

**** Week  406 almanac for PRN-30 ***********
ID:                          30
Health:                      51
Eccentricity:               9.749412537e-03
Time of Applicability(s):   4.055040000e+05
Orbital Inclination(rad):   9.462049007e-01
Rate of Right Ascen(R/s):   -8.023191000e-09
SQRT(A) (m^1/2):            5.153527344e+03
Right Ascen at TOA(rad):    -2.187077999e+00
Argument of Perigee(rad):   1.323274851e+00
Mean Anom(rad):             -2.089207411e+00
Af0(s):                     3.623962402e-05
Af1(s/s):                   0.000000000e+00
week:                        406   

**** Week  406 almanac for PRN-31 ***********
ID:                          31
Health:                       0
Eccentricity:               6.262779236e-03
Time of Applicability(s):   4.055040000e+05
Orbital Inclination(rad):   9.629588127e-01
Rate of Right Ascen(R/s):   -8.114623640e-09
SQRT(A) (m^1/2):            5.153681152e+03
Right Ascen at TOA(rad):    3.082382679e+00
Argument of Perigee(rad):   -1.326718807e+00
Mean Anom(rad):             3.065800667e-01
Af0(s):                     1.811981201e-05
Af1(s/s):                   0.000000000e+00
week:                        406   

